KUIPER-00071            
1 64818U 25151C   25258.58341435 -.01486702  00000+0 -15884+0 0  9990
2 64818  51.8965 357.7683 0008019  12.4315 345.8819 14.91566429  5499
KUIPER-00072            
1 64819U 25151D   25258.56334528  .00029495  00000+0  81330-3 0  9996
2 64819  51.8788 351.9418 0006816  12.4000 347.7153 15.36848115  9412
KUIPER-00073            
1 64820U 25151E   25258.58341435 -.01508948  00000+0 -15410+0 0  9995
2 64820  51.8961 357.7803 0012603  35.4789  96.2406 14.93334053  4234
KUIPER-00074            
1 64821U 25151F   25258.58341435 -.01025732  00000+0 -38137-1 0  9994
2 64821  51.8819 352.0743 0008477  13.5186 331.5008 15.29676111  3966
KUIPER-00075            
1 64822U 25151G   25258.53936257  .00034286  00000+0  92097-3 0  9990
2 64822  51.8789 351.7988 0005737   0.9981 359.1017 15.37589947  9410
KUIPER-00076            
1 64823U 25151H   25258.58341435 -.00958757  00000+0 -44798-1 0  9997
2 64823  51.8813 352.6382 0007902  21.6006  80.6019 15.21973505  5482
KUIPER-00077            
1 64824U 25151J   25258.58341435 -.01400259  00000+0 -95320-1 0  9995
2 64824  51.8900 354.5217 0006154 343.6393 296.2191 15.08990760  5632
KUIPER-00078            
1 64825U 25151K   25258.58341435 -.00632510  00000+0 -35049-1 0  9994
2 64825  51.8820 353.4848 0010640  51.0435   4.4608 15.15846008  5088
